CSS (TIANHE)            
1 48274U 21035A   23338.63581839  .00016883  00000+0  18183-3 0  9997
2 48274  41.4695 197.8945 0007888 274.9210  85.0729 15.63278374148487
